[{"OBJECT_NAME":"ASTROCAST-0401","OBJECT_ID":"2023-001DF","EPOCH":"2026-03-09T17:04:53.382144","MEAN_MOTION":15.26258462,"ECCENTRICITY":0.00081423,"INCLINATION":97.5547,"RA_OF_ASC_NODE":160.5206,"ARG_OF_PERICENTER":188.4231,"MEAN_ANOMALY":171.6872,"EPHEMERIS_TYPE":0,"CLASSIFICATION_TYPE":"U","NORAD_CAT_ID":55110,"ELEMENT_SET_NO":999,"REV_AT_EPOCH":17602,"BSTAR":0.00037868349,"MEAN_MOTION_DOT":9.75e-5,"MEAN_MOTION_DDOT":0},{"OBJECT_NAME":"STARLINK-33739","OBJECT_ID":"2025-076D","EPOCH":"2026-03-09T09:49:24.053088","MEAN_MOTION":15.27599048,"ECCENTRICITY":0.00021339,"INCLINATION":43.0046,"RA_OF_ASC_NODE":323.6207,"ARG_OF_PERICENTER":272.8873,"MEAN_ANOMALY":87.1735,"EPHEMERIS_TYPE":0,"CLASSIFICATION_TYPE":"U","NORAD_CAT_ID":63572,"ELEMENT_SET_NO":999,"REV_AT_EPOCH":5178,"BSTAR":0.00078344875,"MEAN_MOTION_DOT":0.00021372,"MEAN_MOTION_DDOT":0}]
